{
  "norad_id": 63954,
  "name": "STARLINK-33974",
  "history": [
    {
      "epoch": "2026-03-28T15:55:59.986272Z",
      "apogee_km": 483.4249839555332,
      "perigee_km": 482.691659399552,
      "latitude_deg": -2.7217606672493523e-05,
      "longitude_deg": 4.377233745687363,
      "height_km": 482.60454762292164,
      "semi_major_axis_km": 6861.195321677542,
      "eccentricity": 5.344e-05,
      "inclination_deg": 42.9977,
      "raan_deg": 69.4583,
      "arg_perigee_deg": 51.4458,
      "mean_anomaly_deg": 308.6441,
      "mean_motion_rev_day": 15.27576919
    }
  ]
}